{"type": "FeatureCollection", "features": [ {"type": "Feature", "properties": {"norad_id": 31303, "name": "FENGYUN 1C DEB", "group": "fengyun-1c-debris", "lat": 61.587356936123676, "lon": -148.44456150450776, "alt_km": 841.122958875264, "timestamp": "2025-12-25T07:00:34.329397+00:00", "meta": {"OBJECT_NAME": "FENGYUN 1C DEB", "OBJECT_ID": "1999-025BPM", "EPOCH": "2025-12-24T11:44:12.668064", "MEAN_MOTION": 14.11029713, "ECCENTRICITY": 0.00120246, "INCLINATION": 98.7039, "RA_OF_ASC_NODE": 14.3281, "ARG_OF_PERICENTER": 120.7767, "MEAN_ANOMALY": 239.459, "EPHEMERIS_TYPE": 0, "CLASSIFICATION_TYPE": "U", "NORAD_CAT_ID": 31303, "ELEMENT_SET_NO": 999, "REV_AT_EPOCH": 96484, "BSTAR": 0.00012179217, "MEAN_MOTION_DOT": 1.77e-06, "MEAN_MOTION_DDOT": 0}, "tle": {"line1": "1 31303U 99025BPM 25358.48903551  .00000177  00000+0  12179-3 0  9990", "line2": "2 31303  98.7039  14.3281 0012024 120.7767 239.4590 14.11029713964848"}}, "geometry": {"type": "Point", "coordinates": [-148.44456150450776, 61.587356936123676]}}, {"type": "Feature", "properties": {"norad_id": 31311, "name": "FENGYUN 1C DEB", "group": "fengyun-1c-debris", "lat": -55.85898762600493, "lon": 94.13035391731913, "alt_km": 802.742837624136, "timestamp": "2025-12-25T07:00:34.329408+00:00", "meta": {"OBJECT_NAME": "FENGYUN 1C DEB", "OBJECT_ID": "1999-025BPP", "EPOCH": "2025-12-24T20:04:58.580832", "MEAN_MOTION": 14.29844244, "ECCENTRICITY": 0.00175779, "INCLINATION": 98.8515, "RA_OF_ASC_NODE": 80.3822, "ARG_OF_PERICENTER": 50.6608, "MEAN_ANOMALY": 70.5344, "EPHEMERIS_TYPE": 0, "CLASSIFICATION_TYPE": "U", "NORAD_CAT_ID": 31311, "ELEMENT_SET_NO": 999, "REV_AT_EPOCH": 96394, "BSTAR": 0.0016961477, "MEAN_MOTION_DOT": 4.326e-05, "MEAN_MOTION_DDOT": 0}, "tle": {"line1": "1 31311U 99025BPP 25358.83678913  .00004326  00000+0  16961-2 0  9991", "line2": "2 31311  98.8515  80.3822 0017577  50.6608  70.5344 14.29844244963948"}}, "geometry": {"type": "Point", "coordinates": [94.13035391731913, -55.85898762600493]}}, {"type": "Feature", "properties": {"norad_id": 31312, "name": "FENGYUN 1C DEB", "group": "fengyun-1c-debris", "lat": -63.57406132860617, "lon": 146.29161101098413, "alt_km": 867.074920982528, "timestamp": "2025-12-25T07:00:34.329419+00:00", "meta": {"OBJECT_NAME": "FENGYUN 1C DEB", "OBJECT_ID": "1999-025BPQ", "EPOCH": "2025-12-15T05:56:52.525824", "MEAN_MOTION": 14.00925702, "ECCENTRICITY": 0.00580012, "INCLINATION": 98.8604, "RA_OF_ASC_NODE": 334.8421, "ARG_OF_PERICENTER": 229.1743, "MEAN_ANOMALY": 146.4845, "EPHEMERIS_TYPE": 0, "CLASSIFICATION_TYPE": "U", "NORAD_CAT_ID": 31312, "ELEMENT_SET_NO": 999, "REV_AT_EPOCH": 95181, "BSTAR": 0.00060391584, "MEAN_MOTION_DOT": 8.73e-06, "MEAN_MOTION_DDOT": 0}, "tle": {"line1": "1 31312U 99025BPQ 25349.24783016  .00000873  00000+0  60392-3 0  9999", "line2": "2 31312  98.8604 334.8421 0058001 229.1743 146.4845 14.00925702951810"}}, "geometry": {"type": "Point", "coordinates": [146.29161101098413, -63.57406132860617]}}, {"type": "Feature", "properties": {"norad_id": 31313, "name": "FENGYUN 1C DEB", "group": "fengyun-1c-debris", "lat": 6.273515846111533, "lon": 84.45731651695394, "alt_km": 791.0599377480103, "timestamp": "2025-12-25T07:00:34.329430+00:00", "meta": {"OBJECT_NAME": "FENGYUN 1C DEB", "OBJECT_ID": "1999-025BPR", "EPOCH": "2025-12-23T11:59:22.013376", "MEAN_MOTION": 14.22287318, "ECCENTRICITY": 0.00451533, "INCLINATION": 99.0155, "RA_OF_ASC_NODE": 261.625, "ARG_OF_PERICENTER": 150.246, "MEAN_ANOMALY": 210.1299, "EPHEMERIS_TYPE": 0, "CLASSIFICATION_TYPE": "U", "NORAD_CAT_ID": 31313, "ELEMENT_SET_NO": 999, "REV_AT_EPOCH": 97215, "BSTAR": 0.00026650765, "MEAN_MOTION_DOT": 5.52e-06, "MEAN_MOTION_DDOT": 0}, "tle": {"line1": "1 31313U 99025BPR 25357.49956034  .00000552  00000+0  26651-3 0  9992", "line2": "2 31313  99.0155 261.6250 0045153 150.2460 210.1299 14.22287318972156"}}, "geometry": {"type": "Point", "coordinates": [84.45731651695394, 6.273515846111533]}}, {"type": "Feature", "properties": {"norad_id": 31314, "name": "FENGYUN 1C DEB", "group": "fengyun-1c-debris", "lat": 20.63346923913051, "lon": 176.3077826549046, "alt_km": 930.9418378501387, "timestamp": "2025-12-25T07:00:34.329440+00:00", "meta": {"OBJECT_NAME": "FENGYUN 1C DEB", "OBJECT_ID": "1999-025BPS", "EPOCH": "2025-12-23T18:21:29.542464", "MEAN_MOTION": 14.04935458, "ECCENTRICITY": 0.00782515, "INCLINATION": 98.8224, "RA_OF_ASC_NODE": 351.4704, "ARG_OF_PERICENTER": 326.4651, "MEAN_ANOMALY": 33.1576, "EPHEMERIS_TYPE": 0, "CLASSIFICATION_TYPE": "U", "NORAD_CAT_ID": 31314, "ELEMENT_SET_NO": 999, "REV_AT_EPOCH": 60969, "BSTAR": 0.00036988335, "MEAN_MOTION_DOT": 5.68e-06, "MEAN_MOTION_DDOT": 0}, "tle": {"line1": "1 31314U 99025BPS 25357.76492526  .00000568  00000+0  36988-3 0  9995", "line2": "2 31314  98.8224 351.4704 0078251 326.4651  33.1576 14.04935458609699"}}, "geometry": {"type": "Point", "coordinates": [176.3077826549046, 20.63346923913051]}}, {"type": "Feature", "properties": {"norad_id": 31319, "name": "FENGYUN 1C DEB", "group": "fengyun-1c-debris", "lat": 28.17490170525817, "lon": 81.97135317632691, "alt_km": 992.1682704335935, "timestamp": "2025-12-25T07:00:34.329451+00:00", "meta": {"OBJECT_NAME": "FENGYUN 1C DEB", "OBJECT_ID": "1999-025BPX", "EPOCH": "2025-12-24T16:28:07.629024", "MEAN_MOTION": 13.75833497, "ECCENTRICITY": 0.01706011, "INCLINATION": 98.831, "RA_OF_ASC_NODE": 256.6331, "ARG_OF_PERICENTER": 55.2278, "MEAN_ANOMALY": 334.9598, "EPHEMERIS_TYPE": 0, "CLASSIFICATION_TYPE": "U", "NORAD_CAT_ID": 31319, "ELEMENT_SET_NO": 999, "REV_AT_EPOCH": 93852, "BSTAR": 0.00021344103, "MEAN_MOTION_DOT": 1.91e-06, "MEAN_MOTION_DDOT": 0}, "tle": {"line1": "1 31319U 99025BPX 25358.68619941  .00000191  00000+0  21344-3 0  9996", "line2": "2 31319  98.8310 256.6331 0170601  55.2278 334.9598 13.75833497938526"}}, "geometry": {"type": "Point", "coordinates": [81.97135317632691, 28.17490170525817]}}, {"type": "Feature", "properties": {"norad_id": 31321, "name": "FENGYUN 1C DEB", "group": "fengyun-1c-debris", "lat": -4.177037095988213, "lon": 78.51514012362989, "alt_km": 867.9559236857904, "timestamp": "2025-12-25T07:00:34.329461+00:00", "meta": {"OBJECT_NAME": "FENGYUN 1C DEB", "OBJECT_ID": "1999-025BPZ", "EPOCH": "2025-12-21T11:18:43.092576", "MEAN_MOTION": 14.13827699, "ECCENTRICITY": 0.00303049, "INCLINATION": 98.7333, "RA_OF_ASC_NODE": 74.1401, "ARG_OF_PERICENTER": 153.2037, "MEAN_ANOMALY": 207.0709, "EPHEMERIS_TYPE": 0, "CLASSIFICATION_TYPE": "U", "NORAD_CAT_ID": 31321, "ELEMENT_SET_NO": 999, "REV_AT_EPOCH": 57507, "BSTAR": 0.00012257196, "MEAN_MOTION_DOT": 1.9e-06, "MEAN_MOTION_DDOT": 0}, "tle": {"line1": "1 31321U 99025BPZ 25355.47133209  .00000190  00000+0  12257-3 0  9993", "line2": "2 31321  98.7333  74.1401 0030304 153.2037 207.0709 14.13827699575072"}}, "geometry": {"type": "Point", "coordinates": [78.51514012362989, -4.177037095988213]}}, {"type": "Feature", "properties": {"norad_id": 31322, "name": "FENGYUN 1C DEB", "group": "fengyun-1c-debris", "lat": -9.831063360083077, "lon": 63.26890918368363, "alt_km": 822.0878675535814, "timestamp": "2025-12-25T07:00:34.329471+00:00", "meta": {"OBJECT_NAME": "FENGYUN 1C DEB", "OBJECT_ID": "1999-025BQA", "EPOCH": "2025-12-22T10:55:09.812352", "MEAN_MOTION": 13.73001176, "ECCENTRICITY": 0.02380895, "INCLINATION": 98.5721, "RA_OF_ASC_NODE": 59.2277, "ARG_OF_PERICENTER": 344.2123, "MEAN_ANOMALY": 29.7428, "EPHEMERIS_TYPE": 0, "CLASSIFICATION_TYPE": "U", "NORAD_CAT_ID": 31322, "ELEMENT_SET_NO": 999, "REV_AT_EPOCH": 62409, "BSTAR": 0.00020913462, "MEAN_MOTION_DOT": 1.98e-06, "MEAN_MOTION_DDOT": 0}, "tle": {"line1": "1 31322U 99025BQA 25356.45497468  .00000198  00000+0  20913-3 0  9999", "line2": "2 31322  98.5721  59.2277 0238089 344.2123  29.7428 13.73001176624098"}}, "geometry": {"type": "Point", "coordinates": [63.26890918368363, -9.831063360083077]}}, {"type": "Feature", "properties": {"norad_id": 31323, "name": "FENGYUN 1C DEB", "group": "fengyun-1c-debris", "lat": -32.7341604836459, "lon": -147.3944831697835, "alt_km": 827.3734825753836, "timestamp": "2025-12-25T07:00:34.329482+00:00", "meta": {"OBJECT_NAME": "FENGYUN 1C DEB", "OBJECT_ID": "1999-025BQB", "EPOCH": "2025-12-20T21:43:51.769056", "MEAN_MOTION": 14.27642156, "ECCENTRICITY": 0.0030892, "INCLINATION": 99.4195, "RA_OF_ASC_NODE": 34.0071, "ARG_OF_PERICENTER": 56.5612, "MEAN_ANOMALY": 303.8513, "EPHEMERIS_TYPE": 0, "CLASSIFICATION_TYPE": "U", "NORAD_CAT_ID": 31323, "ELEMENT_SET_NO": 999, "REV_AT_EPOCH": 64097, "BSTAR": 0.0010025, "MEAN_MOTION_DOT": 2.433e-05, "MEAN_MOTION_DDOT": 0}, "tle": {"line1": "1 31323U 99025BQB 25354.90546029  .00002433  00000+0  10025-2 0  9992", "line2": "2 31323  99.4195  34.0071 0030892  56.5612 303.8513 14.27642156640970"}}, "geometry": {"type": "Point", "coordinates": [-147.3944831697835, -32.7341604836459]}}, {"type": "Feature", "properties": {"norad_id": 31324, "name": "FENGYUN 1C DEB", "group": "fengyun-1c-debris", "lat": 77.72583582531882, "lon": 148.65923459907248, "alt_km": 870.8773507834294, "timestamp": "2025-12-25T07:00:34.329492+00:00", "meta": {"OBJECT_NAME": "FENGYUN 1C DEB", "OBJECT_ID": "1999-025BQC", "EPOCH": "2025-12-21T14:16:42.684672", "MEAN_MOTION": 14.14700279, "ECCENTRICITY": 0.0048997, "INCLINATION": 99.1242, "RA_OF_ASC_NODE": 277.2633, "ARG_OF_PERICENTER": 278.9209, "MEAN_ANOMALY": 80.6419, "EPHEMERIS_TYPE": 0, "CLASSIFICATION_TYPE": "U", "NORAD_CAT_ID": 31324, "ELEMENT_SET_NO": 999, "REV_AT_EPOCH": 96611, "BSTAR": 0.00014071, "MEAN_MOTION_DOT": 2.27e-06, "MEAN_MOTION_DDOT": 0}, "tle": {"line1": "1 31324U 99025BQC 25355.59493848  .00000227  00000+0  14071-3 0  9994", "line2": "2 31324  99.1242 277.2633 0048997 278.9209  80.6419 14.14700279966112"}}, "geometry": {"type": "Point", "coordinates": [148.65923459907248, 77.72583582531882]}}]}